{
  "type": "FeatureCollection",
  "features": [
    {
      "type": "Feature",
      "properties": {
        "norad_id": 58655,
        "name": "BEIDOU-3 M26 (C48)",
        "group": "beidou",
        "lat": -9.905575933590725,
        "lon": -104.97875584488328,
        "alt_km": 21525.418037520813,
        "timestamp": "2025-12-25T22:42:17.277035+00:00",
        "meta_object_name": "BEIDOU-3 M26 (C48)",
        "meta_object_id": "2023-207B",
        "meta_epoch": "2025-12-25T15:49:44.827104",
        "meta_mean_motion": 1.86231167,
        "meta_eccentricity": 0.0004253,
        "meta_inclination": 55.5974,
        "meta_ra_of_asc_node": 68.1501,
        "meta_arg_of_pericenter": 261.5267,
        "meta_mean_anomaly": 98.4781,
        "meta_ephemeris_type": 0,
        "meta_classification_type": "U",
        "meta_norad_cat_id": 58655,
        "meta_element_set_no": 999,
        "meta_rev_at_epoch": 1359,
        "meta_bstar": 0,
        "meta_mean_motion_dot": -2.9e-07,
        "meta_mean_motion_ddot": 0,
        "tle_line1": "1 58655U 23207B   25359.65954661 -.00000029  00000+0  00000+0 0  9999",
        "tle_line2": "2 58655  55.5974  68.1501 0004253 261.5267  98.4781  1.86231167 13590"
      },
      "geometry": {
        "type": "Point",
        "coordinates": [
          -104.97875584488328,
          -9.905575933590725
        ]
      }
    },
    {
      "type": "Feature",
      "properties": {
        "norad_id": 61186,
        "name": "BEIDOU-3 M25 (C47)",
        "group": "beidou",
        "lat": -39.360273823545135,
        "lon": -87.34754080495277,
        "alt_km": 21517.899733025515,
        "timestamp": "2025-12-25T22:42:17.277046+00:00",
        "meta_object_name": "BEIDOU-3 M25 (C47)",
        "meta_object_id": "2024-168B",
        "meta_epoch": "2025-12-25T19:23:17.503008",
        "meta_mean_motion": 1.86229973,
        "meta_eccentricity": 0.000541,
        "meta_inclination": 54.6304,
        "meta_ra_of_asc_node": 308.2683,
        "meta_arg_of_pericenter": 300.2841,
        "meta_mean_anomaly": 276.0104,
        "meta_ephemeris_type": 0,
        "meta_classification_type": "U",
        "meta_norad_cat_id": 61186,
        "meta_element_set_no": 999,
        "meta_rev_at_epoch": 855,
        "meta_bstar": 0,
        "meta_mean_motion_dot": -5.5e-07,
        "meta_mean_motion_ddot": 0,
        "tle_line1": "1 61186U 24168B   25359.80784147 -.00000055  00000+0  00000+0 0  9995",
        "tle_line2": "2 61186  54.6304 308.2683 0005410 300.2841 276.0104  1.86229973  8559"
      },
      "geometry": {
        "type": "Point",
        "coordinates": [
          -87.34754080495277,
          -39.360273823545135
        ]
      }
    },
    {
      "type": "Feature",
      "properties": {
        "norad_id": 61187,
        "name": "BEIDOU-3 M27 (C49)",
        "group": "beidou",
        "lat": 54.18721345465906,
        "lon": 27.83266617451033,
        "alt_km": 21523.373188555946,
        "timestamp": "2025-12-25T22:42:17.277058+00:00",
        "meta_object_name": "BEIDOU-3 M27 (C49)",
        "meta_object_id": "2024-168C",
        "meta_epoch": "2025-12-25T00:22:38.802432",
        "meta_mean_motion": 1.86230181,
        "meta_eccentricity": 0.00025443,
        "meta_inclination": 54.6266,
        "meta_ra_of_asc_node": 308.2793,
        "meta_arg_of_pericenter": 341.3451,
        "meta_mean_anomaly": 198.8284,
        "meta_ephemeris_type": 0,
        "meta_classification_type": "U",
        "meta_norad_cat_id": 61187,
        "meta_element_set_no": 999,
        "meta_rev_at_epoch": 601,
        "meta_bstar": 0,
        "meta_mean_motion_dot": -5.4e-07,
        "meta_mean_motion_ddot": 0,
        "tle_line1": "1 61187U 24168C   25359.01572688 -.00000054  00000+0  00000+0 0  9993",
        "tle_line2": "2 61187  54.6266 308.2793 0002544 341.3451 198.8284  1.86230181  6019"
      },
      "geometry": {
        "type": "Point",
        "coordinates": [
          27.83266617451033,
          54.18721345465906
        ]
      }
    }
  ]
}